2 54058  53.2149 226.0628 0001664  53.0897 100.1275 15.08847126    12
STARLINK-5173           
1 54059C 22136J   22353.09284722  .00021014  00000-0  13177-2 0  3539
2 54059  53.2150 226.1138 0001212  88.5114  37.1198 15.08818557    15
STARLINK-5169           
1 54060C 22136K   22353.06020833 -.00001894  00000-0 -13463-4 0  3535
2 54060  53.2136 212.9053 0002459  16.1399 145.8093 15.73208357    10
STARLINK-5209           
1 54061C 22136L   22353.07062500  .00067009  00000-0  47574-3 0  3531
2 54061  53.2149 211.3838 0001060 101.9599 123.3527 15.73169086    19
STARLINK-5170           
1 54062C 22136M   22353.09076389  .00007434  00000-0  46606-3 0  3535
2 54062  53.2161 226.0469 0001706 123.0138  31.3514 15.08837021    11
STARLINK-5225           
1 54063C 22136N   22353.08868056  .00005123  00000-0  32121-3 0  3535
2 54063  53.2158 226.0133 0002033  47.4103 115.6607 15.08836168    11
STARLINK-5172           
1 54064C 22136P   22353.05534722 -.00018127  00000-0 -12888-3 0  3531
2 54064  53.2161 213.6720 0001734  25.2743 107.7258 15.73219685    16
STARLINK-5187           
1 54065C 22136Q   22353.09354167  .00020953  00000-0  13137-2 0  3534
2 54065  53.2160 225.9161 0001930  45.1982 184.3432 15.08823288    18
STARLINK-5151           
1 54066C 22136R   22353.09423611 -.00003771  00000-0 -23641-3 0  3539
2 54066  53.2159 225.9520 0001705  56.0163 157.2473 15.08850981    12
STARLINK-5174           
1 54067C 22136S   22353.09631944  .00019596  00000-0  12286-2 0  3532
2 54067  53.2153 225.8256 0001882  36.6421 248.0316 15.08824237    19
STARLINK-5222           
1 54068C 22136T   22353.09562500  .00021457  00000-0  13452-2 0  3539
2 54068  53.2154 225.8649 0001887  48.4616 212.4002 15.08822955    11
STARLINK-5223           
1 54069C 22136U   22353.08937500 -.00003078  00000-0 -19301-3 0  3536
2 54069  53.2148 225.7332 0001883  45.1189 261.8806 15.08843571    15
STARLINK-5181           
1 54070C 22136V   22353.09493056  .00011328  00000-0  71019-3 0  3531
2 54070  53.2151 225.8021 0001656  58.9003 233.0600 15.08836199    13
STARLINK-5168           
1 54071C 22136W   22353.09215278 -.00006457  00000-0 -40481-3 0  3538
2 54071  53.2136 225.7589 0001890  51.2026 250.8594 15.08853598    17
STARLINK-5144           
1 54072C 22136X   22353.09423611  .00020203  00000-0  12666-2 0  3537
2 54072  53.2162 225.7992 0001908  50.8190 242.5456 15.08827615    18
STARLINK-5146           
1 54073C 22136Y   22353.09284722  .00018233  00000-0  11429-2 0  3532
2 54073  53.2153 221.3507 0001381  84.7039 283.0282 15.08834317    10
STARLINK-5192           
1 54074C 22136Z   22353.09562500  .00019189  00000-0  12030-2 0  3536
2 54074  53.2145 225.6674 0001927  52.4678 308.5166 15.08826739    14
STARLINK-5212           
1 54075C 22136AA  22353.09493056  .00020209  00000-0  12671-2 0  3532
2 54075  53.2138 221.0659 0001623  42.7796 116.5048 15.08822520    16
STARLINK-5201           
1 54076C 22136AB  22353.09284722  .00011940  00000-0  74838-3 0  3537
2 54076  53.2140 225.6396 0001952  48.2508 317.6652 15.08841868    16
STARLINK-5171           
1 54077C 22136AC  22353.06576389 -.00964416  00000-0 -73341-2 0  3532
2 54077  53.2165 213.6554 0003765 293.8376 242.3030 15.72579178    19
STARLINK-5138           
1 54078C 22136AD  22353.06645833 -.00979651  00000-0 -74569-2 0  3534
2 54078  53.2163 213.6533 0001826  31.7085 147.7332 15.72580664    12
STARLINK-5175           
1 54079C 22136AE  22353.09215278 -.01227334  00000-0 -47879-1 0  3532
2 54079  53.2164 216.7420 0001352  81.2679  82.3090 15.26630573    15
STARLINK-5160           
1 54080C 22136AF  22353.09562500  .00020411  00000-0  12798-2 0  3534
2 54080  53.2143 221.5354 0001838  61.0711 221.6528 15.08820113    11
STARLINK-5165           
1 54081C 22136AG  22353.08590278 -.01235718  00000-0 -47316-1 0  3531
2 54081  53.2163 216.7230 0001360  89.3815  63.8111 15.27258080    14
STARLINK-5210           
1 54082C 22136AH  22353.08868056 -.01238536  00000-0 -47865-1 0  3534
2 54082  53.2163 216.7336 0001286  91.4492  65.0868 15.26953540    19
STARLINK-5178           
1 54083C 22136AJ  22353.08243056 -.01232609  00000-0 -46389-1 0  3537
2 54083  53.2163 216.6905 0001293  80.8348  77.7860 15.27826140    19
STARLINK-5183           
1 54084C 22136AK  22353.08451389 -.01234755  00000-0 -46970-1 0  3538
2 54084  53.2163 216.7113 0001440  64.7776  89.7514 15.27474290    16
STARLINK-5166           
1 54085C 22136AL  22353.08104167 -.01233344  00000-0 -45992-1 0  3534
2 54085  53.2164 216.6740 0001365 102.3784  60.1543 15.28130436    14
STARLINK-5211           
1 54086C 22136AM  22353.06229167  .00060546  00000-0  42955-3 0  3538
2 54086  53.2134 213.6718 0003480   9.0474 150.8131 15.73184464    13
STARLINK-5184           
1 54087C 22136AN  22353.07895833 -.01228780  00000-0 -45401-1 0  3535
2 54087  53.2164 216.6612 0001339  82.5827  79.9153 15.28429369    13
STARLINK-5153           
1 54088C 22136AP  22353.08381944 -.01234404  00000-0 -46886-1 0  3538
2 54088  53.2164 216.7069 0001666  50.3489 104.2506 15.27523307    11
STARLINK-5143           
1 54089C 22136AQ  22353.08381944 -.01233981  00000-0 -44374-1 0  3538
2 54089  53.2164 216.5718 0001321  80.0076 142.7381 15.29324823    13
STARLINK-5177           
1 54090C 22136AR  22353.07756944 -.01234399  00000-0 -44774-1 0  3533
2 54090  53.2164 216.6225 0001369  72.7353 104.5114 15.29041861    15
STARLINK-5221           
1 54091C 22136AS  22353.07687500 -.01235421  00000-0 -43303-1 0  3539
2 54091  53.2166 216.5457 0001341  94.3146 119.8028 15.30162345    10
STARLINK-5190           
1 54092C 22136AT  22353.08729167 -.01233278  00000-0 -45178-1 0  3537
2 54092  53.2165 216.5998 0001345  99.6036 120.0285 15.28716554    13
STARLINK-5213           
1 54093C 22136AU  22353.07687500 -.01259687  00000-0 -44065-1 0  3537
2 54093  53.2165 216.5386 0001329 103.4714 114.0377 15.30251752    16
STARLINK-5219           
1 54094C 22136AV  22353.08104167 -.01224948  00000-0 -43636-1 0  3537
2 54094  53.2165 216.5634 0001327 100.5613 117.6763 15.29623483    17
STARLINK-5193           
1 54095C 22136AW  22353.06229167 -.01228073  00000-0 -41057-1 0  3532
2 54095  53.2167 216.4592 0001647  44.1300 168.3270 15.31687624    19
STARLINK-5188           
1 54096C 22136AX  22353.08034722 -.01233599  00000-0 -43538-1 0  3531
2 54096  53.2165 216.5450 0001291  76.1002 149.0875 15.29935675    17
STARLINK-5197           
1 54097C 22136AY  22353.05743056 -.00017448  00000-0 -12406-3 0  3530
2 54097  53.2160 213.6388 0002440  15.2084 144.5745 15.73214528    14
STARLINK-5217           
1 54098C 22136AZ  22353.06090278 -.01217230  00000-0 -41384-1 0  3530
2 54098  53.2139 216.5540 0001317  75.7228  84.9659 15.31134154    17
STARLINK-5198           
1 54099C 22136BA  22353.06715278 -.01233958  00000-0 -41200-1 0  3537
2 54099  53.2167 216.4820 0001226  85.2146 130.0791 15.31735793    19
STARLINK-5185           
1 54100C 22136BB  22353.06437500 -.01218135  00000-0 -42196-1 0  3534
2 54100  53.2137 216.5790 0001391  81.5362  77.6291 15.30528476    16
STARLINK-5204           
1 54101C 22136BC  22353.07062500  .00049723  00000-0  35322-3 0  3537
2 54101  53.2123 213.6130 0003442   9.6780 208.1928 15.73164926    13
STARLINK-5179           
1 54102C 22136BD  22353.06993056 -.01231228  00000-0 -41505-1 0  3530
2 54102  53.2166 216.4879 0001374  80.9693 139.7368 15.31423389    11
STARLINK-5200           
1 54103C 22136BE  22353.07062500  .00072341  00000-0  51369-3 0  3530
2 54103  53.2149 213.6037 0003209   9.6469 208.7923 15.73152803    16
STARLINK-5203           
1 54104C 22136BF  22353.06368056  .00046639  00000-0  33225-3 0  3537
2 54104  53.2159 213.6376 0003232  12.5580 167.2830 15.73103439    14
STARLINK-5290           
1 54157C 22141A   22353.09076389  .00024776  00000-0  15536-2 0  3531
2 54157  53.2169 256.1354 0001717  52.0371 177.2605 15.08814492    11
STARLINK-5297           
1 54158C 22141B   22353.08937500  .00012343  00000-0  77387-3 0  3532
2 54158  53.2156 256.2193 0001568  52.6649 129.0480 15.08831425    19
STARLINK-5294           
1 54159C 22141C   22353.08173611  .00002762  00000-0  17323-3 0  3536
2 54159  53.2175 255.9172 0001283  89.4650 225.7516 15.08825423    13
STARLINK-5233           
1 54160C 22141D   22353.09493056 -.00016648  00000-0 -11827-3 0  3530
2 54160  53.2153 246.2831 0003138   9.8288 143.6375 15.73231837    13
STARLINK-5269           
1 54161C 22141E   22353.06854167  .00012066  00000-0  75632-3 0  3534
2 54161  53.2160 256.2734 0001877  50.3163  38.1821 15.08839867    15
STARLINK-5273           
1 54162C 22141F   22353.09562500  .00000332  00000-0  20804-4 0  3530
2 54162  53.2178 256.0745 0001755  50.0263 225.7435 15.08844057    10
STARLINK-5161           
1 54163C 22141G   22353.08868056 -.01230411  00000-0 -28087-1 0  3539
2 54163  53.2168 247.9780 0001202  68.1596 297.4187 15.43535646    14
STARLINK-5278           
1 54164C 22141H   22353.08937500 -.01231113  00000-0 -28398-1 0  3536
2 54164  53.2168 247.9833 0001026  75.5625 289.6135 15.43225254    10
STARLINK-5279           
1 54165C 22141J   22353.09215278 -.00001894  00000-0 -11878-3 0  3536
2 54165  53.2194 256.0526 0001632  57.0902 219.8353 15.08842443    19
STARLINK-5280           
1 54166C 22141K   22353.08798611 -.01240538  00000-0 -28021-1 0  3530
2 54166  53.2167 247.9733 0000950  77.8639 287.9584 15.43860892    17
STARLINK-5243           
1 54167C 22141L   22353.08173611 -.00009718  00000-0 -60973-3 0  3534
2 54167  53.2170 255.8719 0000996  98.9537 236.3624 15.08827928    12
STARLINK-5245           
1 54168C 22141M   22353.07062500 -.01217963  00000-0 -27214-1 0  3531
2 54168  53.2138 248.0504 0001156  75.6631 198.7391 15.44161394    19
STARLINK-5282           
1 54169C 22141N   22353.09562500 -.01250018  00000-0 -28681-1 0  3536
2 54169  53.2168 247.7307 0001315  69.4899  84.2805 15.43403045    14
